{
  "type": "FeatureCollection",
  "features": [
    {
      "type": "Feature",
      "properties": {
        "name": "Central Park Library First Floor Men's Restroom",
        "type": "restroom",
        "subtype": "men",
        "desc": "<p><span class=\"font-bold\">Mon:</span> 10:00am–6:00pm<br/><span class=\"font-bold\">Tue–Thu:</span> 10:00am–7:00pm<br/><span class=\"font-bold\">Fri:</span> 10:00am–6:00pm<br/><span class=\"font-bold\">Sat:</span> 10:00am–5:00pm<br/><span class=\"font-bold\">Sun:</span> 1:00–5:00pm</p><p>This restroom is only available during Central Park Library opening hours.</p>",
        "marker-color": "#87ceeb",
        "marker-size": "small",
        "marker-symbol": "circle"
      },
      "geometry": {
        "coordinates": [-121.9736534357071, 37.34039046929037],
        "type": "Point"
      },
      "id": "library-first-floor-m-restroom"
    },
    {
      "type": "Feature",
      "properties": {
        "name": "Central Park Library First Floor Women's Restroom",
        "type": "restroom",
        "subtype": "women",
        "desc": "<p><span class=\"font-bold\">Mon:</span> 10:00am–6:00pm<br/><span class=\"font-bold\">Tue–Thu:</span> 10:00am–7:00pm<br/><span class=\"font-bold\">Fri:</span> 10:00am–6:00pm<br/><span class=\"font-bold\">Sat:</span> 10:00am–5:00pm<br/><span class=\"font-bold\">Sun:</span> 1:00–5:00pm</p><p>This restroom is only available during Central Park Library opening hours.</p>",
        "marker-color": "#87ceeb",
        "marker-size": "small",
        "marker-symbol": "circle"
      },
      "geometry": {
        "coordinates": [-121.97368428111079, 37.34039046929037],
        "type": "Point"
      },
      "id": "library-first-floor-w-restroom"
    },
    {
      "type": "Feature",
      "properties": {
        "name": "Central Park Library First Floor Family Restroom A",
        "type": "restroom",
        "subtype": "all",
        "desc": "<p><span class=\"font-bold\">Mon:</span> 10:00am–6:00pm<br/><span class=\"font-bold\">Tue–Thu:</span> 10:00am–7:00pm<br/><span class=\"font-bold\">Fri:</span> 10:00am–6:00pm<br/><span class=\"font-bold\">Sat:</span> 10:00am–5:00pm<br/><span class=\"font-bold\">Sun:</span> 1:00–5:00pm</p><p>This restroom is only available during Central Park Library opening hours.</p>",
        "marker-color": "#87ceeb",
        "marker-size": "small",
        "marker-symbol": "circle"
      },
      "geometry": {
        "coordinates": [-121.97394043207171, 37.34042885391693],
        "type": "Point"
      },
      "id": "library-first-floor-fam-restroom-a"
    },
    {
      "type": "Feature",
      "properties": {
        "name": "Central Park Library First Floor Family Restroom B",
        "type": "restroom",
        "subtype": "all",
        "desc": "<p><span class=\"font-bold\">Mon:</span> 10:00am–6:00pm<br/><span class=\"font-bold\">Tue–Thu:</span> 10:00am–7:00pm<br/><span class=\"font-bold\">Fri:</span> 10:00am–6:00pm<br/><span class=\"font-bold\">Sat:</span> 10:00am–5:00pm<br/><span class=\"font-bold\">Sun:</span> 1:00–5:00pm</p><p>This restroom is only available during Central Park Library opening hours.</p>",
        "marker-color": "#87ceeb",
        "marker-size": "small",
        "marker-symbol": "circle"
      },
      "geometry": {
        "coordinates": [-121.97388947010042, 37.34042885391693],
        "type": "Point"
      },
      "id": "library-first-floor-fam-restroom-b"
    },
    {
      "type": "Feature",
      "properties": {
        "name": "Central Park Library Second Floor Women's Restroom",
        "type": "restroom",
        "subtype": "women",
        "desc": "<p><span class=\"font-bold\">Mon:</span> 10:00am–6:00pm<br/><span class=\"font-bold\">Tue–Thu:</span> 10:00am–7:00pm<br/><span class=\"font-bold\">Fri:</span> 10:00am–6:00pm<br/><span class=\"font-bold\">Sat:</span> 10:00am–5:00pm<br/><span class=\"font-bold\">Sun:</span> 1:00–5:00pm</p><p>This restroom is only available during Central Park Library opening hours.</p>",
        "marker-color": "#87ceeb",
        "marker-size": "small",
        "marker-symbol": "circle"
      },
      "geometry": {
        "coordinates": [-121.97343081235888, 37.340569597379925],
        "type": "Point"
      },
      "id": "library-second-floor-w-restroom"
    },
    {
      "type": "Feature",
      "properties": {
        "name": "Central Park Library Second Floor Men's Restroom",
        "type": "restroom",
        "subtype": "men",
        "desc": "<p><span class=\"font-bold\">Mon:</span> 10:00am–6:00pm<br/><span class=\"font-bold\">Tue–Thu:</span> 10:00am–7:00pm<br/><span class=\"font-bold\">Fri:</span> 10:00am–6:00pm<br/><span class=\"font-bold\">Sat:</span> 10:00am–5:00pm<br/><span class=\"font-bold\">Sun:</span> 1:00–5:00pm</p><p>This restroom is only available during Central Park Library opening hours.</p>",
        "marker-color": "#87ceeb",
        "marker-size": "small",
        "marker-symbol": "circle"
      },
      "geometry": {
        "coordinates": [-121.97343081235888, 37.3405386764902],
        "type": "Point"
      },
      "id": "library-second-floor-m-restroom"
    },
    {
      "type": "Feature",
      "properties": {
        "name": "Community Recreation Center Women's Restroom",
        "type": "restroom",
        "subtype": "women",
        "desc": "<p><span class=\"font-bold\">Mon–Fri:</span> 8:30am–8:00pm<br/><span class=\"font-bold\">Sat:</span> 8:30am–12:30pm<br/><span class=\"font-bold\">Sun:</span> Closed</p><p>This restroom is only available during Community Recreation Center opening hours.</p>",
        "marker-color": "#87ceeb",
        "marker-size": "small",
        "marker-symbol": "circle"
      },
      "geometry": {
        "coordinates": [-121.97656229138376, 37.34271696871543],
        "type": "Point"
      },
      "id": "crc-w-restroom"
    },
    {
      "type": "Feature",
      "properties": {
        "name": "Community Recreation Center Men's Restroom",
        "type": "restroom",
        "subtype": "men",
        "desc": "<p><span class=\"font-bold\">Mon–Fri:</span> 8:30am–8:00pm<br/><span class=\"font-bold\">Sat:</span> 8:30am–12:30pm<br/><span class=\"font-bold\">Sun:</span> Closed</p><p>This restroom is only available during Community Recreation Center opening hours.</p>",
        "marker-color": "#87ceeb",
        "marker-size": "small",
        "marker-symbol": "circle"
      },
      "geometry": {
        "coordinates": [-121.97652205824852, 37.34271696871543],
        "type": "Point"
      },
      "id": "crc-m-restroom"
    },
    {
      "type": "Feature",
      "properties": {
        "name": "Arbor Center Women's Restroom",
        "type": "restroom",
        "subtype": "women",
        "marker-color": "#87ceeb",
        "marker-size": "small",
        "marker-symbol": "circle"
      },
      "geometry": {
        "coordinates": [-121.9768935441971, 37.3407775133767],
        "type": "Point"
      },
      "id": "arbor-center-w-restroom"
    },
    {
      "type": "Feature",
      "properties": {
        "name": "Arbor Center Men's Restroom",
        "type": "restroom",
        "subtype": "men",
        "marker-color": "#87ceeb",
        "marker-size": "small",
        "marker-symbol": "circle"
      },
      "geometry": {
        "coordinates": [-121.97688013315202, 37.3408052354661],
        "type": "Point"
      },
      "id": "arbor-center-m-restroom"
    },
    {
      "type": "Feature",
      "properties": {
        "name": "Santa Clara Tennis Center Women's Restroom",
        "type": "restroom",
        "subtype": "women",
        "marker-color": "#87ceeb",
        "marker-size": "small",
        "marker-symbol": "circle"
      },
      "geometry": {
        "coordinates": [-121.97430521249774, 37.344422880329034],
        "type": "Point"
      },
      "id": "tennis-center-w-restroom"
    },
    {
      "type": "Feature",
      "properties": {
        "name": "Santa Clara Tennis Center Men's Restroom",
        "type": "restroom",
        "subtype": "men",
        "marker-color": "#87ceeb",
        "marker-size": "small",
        "marker-symbol": "circle"
      },
      "geometry": {
        "coordinates": [-121.97430521249774, 37.344382365377484],
        "type": "Point"
      },
      "id": "tennis-center-m-restroom"
    }
  ]
}
