{
  "type": "FeatureCollection",
  "features": [
    {
      "type": "Feature",
      "properties": {
        "name": "Smoke-Free Park Sign",
        "type": "devpoi",
        "source": "Wayfarer",
        "submitter": "80PercentLean",
        "marker-color": "#ffff00",
        "marker-size": "small",
        "marker-symbol": "circle"
      },
      "geometry": { "coordinates": [-122.04451, 37.325078], "type": "Point" },
      "id": 26
    },
    {
      "type": "Feature",
      "properties": {
        "name": "Cupertino Parks & Recreation Office",
        "type": "devpoi",
        "source": "Wayfarer",
        "submitter": "80PercentLean",
        "marker-color": "#ffff00",
        "marker-size": "small",
        "marker-symbol": "circle"
      },
      "geometry": { "coordinates": [-122.04233, 37.325889], "type": "Point" },
      "id": 27
    },
    {
      "type": "Feature",
      "properties": {
        "name": "Casa De Anza Sign",
        "type": "devpoi",
        "source": "Wayfarer",
        "marker-color": "#ffff00",
        "marker-size": "small",
        "marker-symbol": "circle"
      },
      "geometry": {
        "coordinates": [-122.050689, 37.328157],
        "type": "Point"
      },
      "id": 39
    },
    {
      "type": "Feature",
      "properties": {
        "name": "Mary Avenue Dog Park Rules Sign (Proposed Change)",
        "type": "devpoi",
        "source": "Wayfarer",
        "marker-color": "#ffff00",
        "marker-size": "small",
        "marker-symbol": "circle"
      },
      "geometry": {
        "coordinates": [-122.05067574977876, 37.327310831953454],
        "type": "Point"
      },
      "id": 40
    }
  ]
}
